LEMUR-2-GREENBERG       
1 42837U 17042N   17345.78817082  .00000584  00000-0  64025-4 0  9997
2 42837  97.6084 250.1418 0014686  99.5906 260.6973 14.91240153 22427
